0 FENGYUN 1C DEB
1 29819U 99025DM  13281.36140422  .00000135  00000-0  10409-3 0  1988
2 29819 099.1497 332.5438 0203889 179.9785 310.8163 13.98974360343769
0 FENGYUN 1C DEB
1 29819U 99025DM  13282.36261007  .00000225  00000-0  15609-3 0  1990
2 29819 099.1497 333.5441 0203913 177.2239 313.2024 13.98975661343901
0 FENGYUN 1C DEB
1 29819U 99025DM  13283.36413612  .00000281  00000-0  18854-3 0  2002
2 29819 099.1496 334.5447 0203943 174.4657 317.2081 13.98975691344049
0 FENGYUN 1C DEB
1 29819U 99025DM  13285.85429176  .00000419  00000-0  26841-3 0  2020
2 29819 099.1491 337.0326 0204016 167.6069 258.4329 13.98975668344394
0 FENGYUN 1C DEB
1 29819U 99025DM  13287.43972940  .00000530  00000-0  33218-3 0  2039
2 29819 099.1487 338.6166 0204044 163.2489 323.2004 13.98976540344613
0 FENGYUN 1C DEB
1 29819U 99025DM  13288.72644372  .00000660  00000-0  40755-3 0  2046
2 29819 099.1484 339.9020 0204074 159.7069 323.5124 13.98978048344790
0 FENGYUN 1C DEB
1 29819U 99025DM  13289.85763319  .00000682  00000-0  42008-3 0  2052
2 29819 099.1482 341.0320 0204105 156.5913 260.5575 13.98979383344954
0 FENGYUN 1C DEB
1 29819U 99025DM  13291.44582600  .00000740  00000-0  45346-3 0  2066
2 29819 099.1480 342.6184 0204139 152.2234 339.2250 13.98981187345177
0 FENGYUN 1C DEB
1 29819U 99025DM  13293.14898663  .00000830  00000-0  50544-3 0  2071
2 29819 099.1481 344.3194 0204166 147.5465 276.9135 13.98983314345411
0 FENGYUN 1C DEB
1 29819U 99025DM  13294.15017168  .00000837  00000-0  50949-3 0  2083
2 29819 099.1483 345.3193 0204169 144.8015 279.2190 13.98985124345550
0 FENGYUN 1C DEB
1 29819U 99025DM  13295.15131789  .00000881  00000-0  53490-3 0  2094
2 29819 099.1485 346.3191 0204181 142.0551 281.3370 13.98986745345699
